TRANSIT 16 [?]          
1 02807U 67048A   22292.36446108  .00000119  00000+0  17043-3 0  9999
2 02807  89.6634  32.2039 0020002 197.2236 232.5924 13.50332629727498
TRANSIT 17 [?]          
1 02965U 67092A   22293.04332465  .00000143  00000+0  19565-3 0  9997
2 02965  89.2298 113.8167 0046990 336.0425 136.9526 13.53044261715903
TRANSIT 18 [?]          
1 03133U 68012A   22293.48926984  .00000122  00000+0  17284-3 0  9994
2 03133  90.0031 271.6392 0072906 259.0207 217.4192 13.51170701690483
NNSS 19 [?]             
1 04507U 70067A   22292.92787667  .00000187  00000+0  25019-3 0  9990
2 04507  89.9296 238.3856 0173613  24.2845 336.6365 13.50850184567355
NNSS O-20 [?]           
1 06909U 73081A   22293.45734000  .00000193  00000+0  19031-3 0  9993
2 06909  89.8149 275.0645 0154311 282.8406  75.5555 13.70708840646410
TRANSAT [?]             
1 10457U 77106A   22292.87998127  .00000088  00000+0  12507-3 0  9999
2 10457  89.6714 118.5024 0023229 268.5118 198.9996 13.48692004212434
NOVA I [?]              
1 12458U 81044A   22293.15965781  .00000095  00000+0  20459-3 0  9993
2 12458  89.8790 106.2992 0015559  39.4656  12.5148 13.23077419   110
NOVA 3 [?]              
1 15362U 84110A   22293.44139171  .00000079  00000+0  16879-3 0  9998
2 15362  90.1013  68.1426 0030237 256.9750 166.3335 13.22844162835308
OSCAR 30 [?]            
1 15935U 85066A   22292.44646385  .00000119  00000+0  19613-3 0  9998
2 15935  90.1764  80.0513 0170594  88.7687 334.4834 13.35770612810956
OSCAR 24 [?]            
1 15936U 85066B   22293.43311730  .00000078  00000+0  12211-3 0  9993
2 15936  90.1745  71.9989 0171125  91.7475 328.7729 13.35630331813227
POLAR BEAR [?]          
1 17070U 86088A   22293.39387059  .00000110  00000+0  10346-3 0  9995
2 17070  89.5719 231.8955 0038948 350.0095 123.5198 13.74886254802112
OSCAR 27 [?]            
1 18361U 87080A   22293.31361205  .00000096  00000+0  14723-3 0  9995
2 18361  90.3400  38.3810 0102472 275.9978  82.9500 13.44579175721340
OSCAR 29 [?]            
1 18362U 87080B   22292.74113330  .00000085  00000+0  12925-3 0  9996
2 18362  90.3413  38.7009 0104261 298.5979 181.5636 13.44167267720596
OSCAR 23 [?]            
1 19070U 88033A   22293.21733714  .00000053  00000+0  88209-4 0  9993
2 19070  90.3297 340.7792 0191365 136.4752 295.9466 13.27534268670278
OSCAR 32 [?]            
1 19071U 88033B   22292.60963973  .00000063  00000+0  10656-3 0  9999
2 19071  90.3299 340.8477 0189913 126.0948  37.4997 13.27714130670029
NOVA 11 [?]             
1 19223U 88052A   22292.91535840  .00000090  00000+0  19380-3 0  9994
2 19223  89.9732  80.5428 0029163 304.2924 168.3681 13.22754150657460
OSCAR 25 [?]            
1 19419U 88074A   22292.31319047  .00000104  00000+0  16530-3 0  9998
2 19419  90.0125  17.9690 0094431 287.9853 136.6234 13.42308421672051
OSCAR 31 [?]            
1 19420U 88074B   22292.53842354  .00000082  00000+0  12806-3 0  9993
2 19420  90.0136  18.1581 0092590 281.3666  87.2885 13.42318310672197
